<?xml version="1.0" encoding="UTF-8"?>
<gpx version="1.1" creator="ihor.sh (Valhalla bicycle routing on OpenStreetMap)" xmlns="http://www.topografix.com/GPX/1/1">
<metadata><name>Hudson overnight: GWB to Bear Mountain</name></metadata>
<trk><name>GWB → Nyack → Bear Mountain</name><trkseg>
<trkpt lat="40.851809" lon="-73.952663"><ele>-18</ele></trkpt>
<trkpt lat="40.851186" lon="-73.949509"><ele>-14</ele></trkpt>
<trkpt lat="40.850641" lon="-73.946695"><ele>3</ele></trkpt>
<trkpt lat="40.850643" lon="-73.946415"><ele>4</ele></trkpt>
<trkpt lat="40.850427" lon="-73.945623"><ele>19</ele></trkpt>
<trkpt lat="40.850191" lon="-73.944407"><ele>30</ele></trkpt>
<trkpt lat="40.849928" lon="-73.942700"><ele>48</ele></trkpt>
<trkpt lat="40.849817" lon="-73.942088"><ele>51</ele></trkpt>
<trkpt lat="40.849796" lon="-73.941844"><ele>52</ele></trkpt>
<trkpt lat="40.849793" lon="-73.941640"><ele>53</ele></trkpt>
<trkpt lat="40.849818" lon="-73.941492"><ele>53</ele></trkpt>
<trkpt lat="40.849863" lon="-73.941356"><ele>53</ele></trkpt>
<trkpt lat="40.849914" lon="-73.941271"><ele>53</ele></trkpt>
<trkpt lat="40.849979" lon="-73.941220"><ele>54</ele></trkpt>
<trkpt lat="40.850050" lon="-73.941201"><ele>54</ele></trkpt>
<trkpt lat="40.850116" lon="-73.941212"><ele>54</ele></trkpt>
<trkpt lat="40.850173" lon="-73.941246"><ele>54</ele></trkpt>
<trkpt lat="40.850222" lon="-73.941299"><ele>53</ele></trkpt>
<trkpt lat="40.850318" lon="-73.941494"><ele>53</ele></trkpt>
<trkpt lat="40.850362" lon="-73.941565"><ele>52</ele></trkpt>
<trkpt lat="40.850415" lon="-73.941603"><ele>52</ele></trkpt>
<trkpt lat="40.850472" lon="-73.941613"><ele>52</ele></trkpt>
<trkpt lat="40.850530" lon="-73.941598"><ele>52</ele></trkpt>
<trkpt lat="40.850581" lon="-73.941556"><ele>52</ele></trkpt>
<trkpt lat="40.850612" lon="-73.941502"><ele>52</ele></trkpt>
<trkpt lat="40.850629" lon="-73.941429"><ele>53</ele></trkpt>
<trkpt lat="40.850626" lon="-73.941351"><ele>53</ele></trkpt>
<trkpt lat="40.850600" lon="-73.941273"><ele>53</ele></trkpt>
<trkpt lat="40.850478" lon="-73.941046"><ele>54</ele></trkpt>
<trkpt lat="40.850403" lon="-73.940684"><ele>56</ele></trkpt>
<trkpt lat="40.850211" lon="-73.939720"><ele>62</ele></trkpt>
<trkpt lat="40.850020" lon="-73.938757"><ele>61</ele></trkpt>
<trkpt lat="40.849810" lon="-73.937699"><ele>59</ele></trkpt>
<trkpt lat="40.849484" lon="-73.936266"><ele>56</ele></trkpt>
<trkpt lat="40.849125" lon="-73.935423"><ele>55</ele></trkpt>
<trkpt lat="40.848685" lon="-73.934376"><ele>55</ele></trkpt>
<trkpt lat="40.848684" lon="-73.934197"><ele>55</ele></trkpt>
<trkpt lat="40.849321" lon="-73.933731"><ele>55</ele></trkpt>
<trkpt lat="40.849660" lon="-73.933482"><ele>55</ele></trkpt>
<trkpt lat="40.849956" lon="-73.933265"><ele>56</ele></trkpt>
<trkpt lat="40.850586" lon="-73.932803"><ele>57</ele></trkpt>
<trkpt lat="40.851154" lon="-73.932390"><ele>58</ele></trkpt>
<trkpt lat="40.851629" lon="-73.932044"><ele>59</ele></trkpt>
<trkpt lat="40.852322" lon="-73.931537"><ele>59</ele></trkpt>
<trkpt lat="40.852790" lon="-73.931195"><ele>59</ele></trkpt>
<trkpt lat="40.853137" lon="-73.930941"><ele>60</ele></trkpt>
<trkpt lat="40.853742" lon="-73.930497"><ele>61</ele></trkpt>
<trkpt lat="40.854256" lon="-73.930121"><ele>64</ele></trkpt>
<trkpt lat="40.854841" lon="-73.929693"><ele>67</ele></trkpt>
<trkpt lat="40.855297" lon="-73.929359"><ele>68</ele></trkpt>
<trkpt lat="40.855612" lon="-73.929132"><ele>66</ele></trkpt>
<trkpt lat="40.856241" lon="-73.928674"><ele>60</ele></trkpt>
<trkpt lat="40.856476" lon="-73.928505"><ele>60</ele></trkpt>
<trkpt lat="40.856719" lon="-73.928327"><ele>60</ele></trkpt>
<trkpt lat="40.856958" lon="-73.928182"><ele>59</ele></trkpt>
<trkpt lat="40.857135" lon="-73.928124"><ele>59</ele></trkpt>
<trkpt lat="40.857243" lon="-73.928026"><ele>58</ele></trkpt>
<trkpt lat="40.857377" lon="-73.927805"><ele>56</ele></trkpt>
<trkpt lat="40.857504" lon="-73.927575"><ele>57</ele></trkpt>
<trkpt lat="40.857807" lon="-73.927218"><ele>51</ele></trkpt>
<trkpt lat="40.858120" lon="-73.927021"><ele>46</ele></trkpt>
<trkpt lat="40.858513" lon="-73.926876"><ele>43</ele></trkpt>
<trkpt lat="40.858797" lon="-73.926768"><ele>40</ele></trkpt>
<trkpt lat="40.859019" lon="-73.926565"><ele>37</ele></trkpt>
<trkpt lat="40.859250" lon="-73.926187"><ele>35</ele></trkpt>
<trkpt lat="40.859499" lon="-73.925781"><ele>30</ele></trkpt>
<trkpt lat="40.859802" lon="-73.925433"><ele>26</ele></trkpt>
<trkpt lat="40.860149" lon="-73.925173"><ele>20</ele></trkpt>
<trkpt lat="40.860460" lon="-73.925002"><ele>17</ele></trkpt>
<trkpt lat="40.860757" lon="-73.924895"><ele>13</ele></trkpt>
<trkpt lat="40.860939" lon="-73.924859"><ele>11</ele></trkpt>
<trkpt lat="40.861225" lon="-73.924844"><ele>7</ele></trkpt>
<trkpt lat="40.861411" lon="-73.924798"><ele>6</ele></trkpt>
<trkpt lat="40.861460" lon="-73.924641"><ele>6</ele></trkpt>
<trkpt lat="40.861710" lon="-73.924813"><ele>5</ele></trkpt>
<trkpt lat="40.862595" lon="-73.925382"><ele>6</ele></trkpt>
<trkpt lat="40.863066" lon="-73.925684"><ele>6</ele></trkpt>
<trkpt lat="40.863621" lon="-73.925885"><ele>6</ele></trkpt>
<trkpt lat="40.864365" lon="-73.923869"><ele>5</ele></trkpt>
<trkpt lat="40.864913" lon="-73.922389"><ele>6</ele></trkpt>
<trkpt lat="40.865137" lon="-73.921784"><ele>6</ele></trkpt>
<trkpt lat="40.865797" lon="-73.919996"><ele>7</ele></trkpt>
<trkpt lat="40.866277" lon="-73.918699"><ele>7</ele></trkpt>
<trkpt lat="40.866441" lon="-73.918245"><ele>7</ele></trkpt>
<trkpt lat="40.866813" lon="-73.917205"><ele>6</ele></trkpt>
<trkpt lat="40.867633" lon="-73.916588"><ele>5</ele></trkpt>
<trkpt lat="40.869442" lon="-73.915265"><ele>8</ele></trkpt>
<trkpt lat="40.870225" lon="-73.914694"><ele>10</ele></trkpt>
<trkpt lat="40.871070" lon="-73.914047"><ele>10</ele></trkpt>
<trkpt lat="40.871415" lon="-73.913643"><ele>11</ele></trkpt>
<trkpt lat="40.872185" lon="-73.912676"><ele>11</ele></trkpt>
<trkpt lat="40.872516" lon="-73.912249"><ele>11</ele></trkpt>
<trkpt lat="40.872937" lon="-73.911828"><ele>10</ele></trkpt>
<trkpt lat="40.873194" lon="-73.911550"><ele>6</ele></trkpt>
<trkpt lat="40.874063" lon="-73.910412"><ele>1</ele></trkpt>
<trkpt lat="40.874454" lon="-73.909779"><ele>6</ele></trkpt>
<trkpt lat="40.874642" lon="-73.909522"><ele>7</ele></trkpt>
<trkpt lat="40.875557" lon="-73.908356"><ele>5</ele></trkpt>
<trkpt lat="40.875790" lon="-73.908386"><ele>5</ele></trkpt>
<trkpt lat="40.876010" lon="-73.908435"><ele>5</ele></trkpt>
<trkpt lat="40.876741" lon="-73.908528"><ele>8</ele></trkpt>
<trkpt lat="40.876871" lon="-73.908586"><ele>9</ele></trkpt>
<trkpt lat="40.877174" lon="-73.908971"><ele>10</ele></trkpt>
<trkpt lat="40.877465" lon="-73.908816"><ele>9</ele></trkpt>
<trkpt lat="40.878305" lon="-73.908021"><ele>8</ele></trkpt>
<trkpt lat="40.879739" lon="-73.906642"><ele>12</ele></trkpt>
<trkpt lat="40.879991" lon="-73.906396"><ele>13</ele></trkpt>
<trkpt lat="40.880481" lon="-73.905919"><ele>14</ele></trkpt>
<trkpt lat="40.881075" lon="-73.905351"><ele>13</ele></trkpt>
<trkpt lat="40.883395" lon="-73.903088"><ele>6</ele></trkpt>
<trkpt lat="40.883837" lon="-73.902571"><ele>7</ele></trkpt>
<trkpt lat="40.884741" lon="-73.901548"><ele>8</ele></trkpt>
<trkpt lat="40.885058" lon="-73.901178"><ele>8</ele></trkpt>
<trkpt lat="40.885144" lon="-73.900982"><ele>8</ele></trkpt>
<trkpt lat="40.885082" lon="-73.900646"><ele>8</ele></trkpt>
<trkpt lat="40.884710" lon="-73.899342"><ele>9</ele></trkpt>
<trkpt lat="40.884293" lon="-73.898407"><ele>7</ele></trkpt>
<trkpt lat="40.884099" lon="-73.898097"><ele>8</ele></trkpt>
<trkpt lat="40.884191" lon="-73.897769"><ele>10</ele></trkpt>
<trkpt lat="40.884997" lon="-73.896645"><ele>7</ele></trkpt>
<trkpt lat="40.885108" lon="-73.896415"><ele>8</ele></trkpt>
<trkpt lat="40.885211" lon="-73.896106"><ele>7</ele></trkpt>
<trkpt lat="40.885293" lon="-73.895612"><ele>8</ele></trkpt>
<trkpt lat="40.885443" lon="-73.894969"><ele>7</ele></trkpt>
<trkpt lat="40.885583" lon="-73.894833"><ele>8</ele></trkpt>
<trkpt lat="40.885745" lon="-73.894696"><ele>7</ele></trkpt>
<trkpt lat="40.886297" lon="-73.894489"><ele>6</ele></trkpt>
<trkpt lat="40.886928" lon="-73.894325"><ele>6</ele></trkpt>
<trkpt lat="40.887940" lon="-73.894244"><ele>6</ele></trkpt>
<trkpt lat="40.888279" lon="-73.894188"><ele>6</ele></trkpt>
<trkpt lat="40.888571" lon="-73.894192"><ele>6</ele></trkpt>
<trkpt lat="40.888667" lon="-73.893969"><ele>6</ele></trkpt>
<trkpt lat="40.889058" lon="-73.893388"><ele>6</ele></trkpt>
<trkpt lat="40.889217" lon="-73.893437"><ele>6</ele></trkpt>
<trkpt lat="40.889404" lon="-73.893227"><ele>6</ele></trkpt>
<trkpt lat="40.889591" lon="-73.892961"><ele>6</ele></trkpt>
<trkpt lat="40.890333" lon="-73.891876"><ele>8</ele></trkpt>
<trkpt lat="40.890933" lon="-73.891084"><ele>7</ele></trkpt>
<trkpt lat="40.891518" lon="-73.890431"><ele>6</ele></trkpt>
<trkpt lat="40.892361" lon="-73.889811"><ele>6</ele></trkpt>
<trkpt lat="40.893166" lon="-73.889322"><ele>6</ele></trkpt>
<trkpt lat="40.894138" lon="-73.888765"><ele>6</ele></trkpt>
<trkpt lat="40.895939" lon="-73.887975"><ele>6</ele></trkpt>
<trkpt lat="40.896732" lon="-73.887713"><ele>6</ele></trkpt>
<trkpt lat="40.900126" lon="-73.886639"><ele>6</ele></trkpt>
<trkpt lat="40.904392" lon="-73.885417"><ele>9</ele></trkpt>
<trkpt lat="40.905601" lon="-73.885070"><ele>9</ele></trkpt>
<trkpt lat="40.906044" lon="-73.884951"><ele>9</ele></trkpt>
<trkpt lat="40.907902" lon="-73.884782"><ele>10</ele></trkpt>
<trkpt lat="40.909415" lon="-73.884712"><ele>9</ele></trkpt>
<trkpt lat="40.910584" lon="-73.884574"><ele>10</ele></trkpt>
<trkpt lat="40.912514" lon="-73.884065"><ele>11</ele></trkpt>
<trkpt lat="40.915725" lon="-73.883256"><ele>12</ele></trkpt>
<trkpt lat="40.916962" lon="-73.883001"><ele>12</ele></trkpt>
<trkpt lat="40.918419" lon="-73.882689"><ele>15</ele></trkpt>
<trkpt lat="40.918928" lon="-73.882511"><ele>14</ele></trkpt>
<trkpt lat="40.920292" lon="-73.881903"><ele>16</ele></trkpt>
<trkpt lat="40.922583" lon="-73.880845"><ele>25</ele></trkpt>
<trkpt lat="40.924303" lon="-73.880454"><ele>27</ele></trkpt>
<trkpt lat="40.925355" lon="-73.880291"><ele>28</ele></trkpt>
<trkpt lat="40.926280" lon="-73.879865"><ele>30</ele></trkpt>
<trkpt lat="40.927684" lon="-73.878783"><ele>33</ele></trkpt>
<trkpt lat="40.928704" lon="-73.878368"><ele>37</ele></trkpt>
<trkpt lat="40.930436" lon="-73.877916"><ele>37</ele></trkpt>
<trkpt lat="40.930951" lon="-73.877524"><ele>35</ele></trkpt>
<trkpt lat="40.931578" lon="-73.876809"><ele>31</ele></trkpt>
<trkpt lat="40.932430" lon="-73.875463"><ele>40</ele></trkpt>
<trkpt lat="40.932748" lon="-73.874900"><ele>42</ele></trkpt>
<trkpt lat="40.933282" lon="-73.873877"><ele>43</ele></trkpt>
<trkpt lat="40.933791" lon="-73.872947"><ele>46</ele></trkpt>
<trkpt lat="40.934623" lon="-73.872033"><ele>46</ele></trkpt>
<trkpt lat="40.935626" lon="-73.871335"><ele>47</ele></trkpt>
<trkpt lat="40.939391" lon="-73.869157"><ele>56</ele></trkpt>
<trkpt lat="40.940864" lon="-73.868196"><ele>59</ele></trkpt>
<trkpt lat="40.941810" lon="-73.867264"><ele>62</ele></trkpt>
<trkpt lat="40.942321" lon="-73.866347"><ele>62</ele></trkpt>
<trkpt lat="40.942548" lon="-73.865474"><ele>62</ele></trkpt>
<trkpt lat="40.942582" lon="-73.864410"><ele>65</ele></trkpt>
<trkpt lat="40.942430" lon="-73.863523"><ele>65</ele></trkpt>
<trkpt lat="40.942292" lon="-73.862500"><ele>67</ele></trkpt>
<trkpt lat="40.942350" lon="-73.861607"><ele>69</ele></trkpt>
<trkpt lat="40.942484" lon="-73.861026"><ele>68</ele></trkpt>
<trkpt lat="40.942534" lon="-73.860841"><ele>68</ele></trkpt>
<trkpt lat="40.942705" lon="-73.860311"><ele>68</ele></trkpt>
<trkpt lat="40.943732" lon="-73.858719"><ele>70</ele></trkpt>
<trkpt lat="40.944982" lon="-73.857553"><ele>74</ele></trkpt>
<trkpt lat="40.945622" lon="-73.856863"><ele>74</ele></trkpt>
<trkpt lat="40.947233" lon="-73.855326"><ele>71</ele></trkpt>
<trkpt lat="40.948050" lon="-73.855012"><ele>69</ele></trkpt>
<trkpt lat="40.948871" lon="-73.855154"><ele>64</ele></trkpt>
<trkpt lat="40.949482" lon="-73.855636"><ele>63</ele></trkpt>
<trkpt lat="40.950021" lon="-73.856535"><ele>64</ele></trkpt>
<trkpt lat="40.951097" lon="-73.859207"><ele>58</ele></trkpt>
<trkpt lat="40.951513" lon="-73.859911"><ele>58</ele></trkpt>
<trkpt lat="40.952898" lon="-73.861106"><ele>58</ele></trkpt>
<trkpt lat="40.953328" lon="-73.861737"><ele>58</ele></trkpt>
<trkpt lat="40.953609" lon="-73.862645"><ele>54</ele></trkpt>
<trkpt lat="40.953796" lon="-73.864033"><ele>48</ele></trkpt>
<trkpt lat="40.954119" lon="-73.865064"><ele>46</ele></trkpt>
<trkpt lat="40.954632" lon="-73.865914"><ele>49</ele></trkpt>
<trkpt lat="40.955450" lon="-73.866613"><ele>51</ele></trkpt>
<trkpt lat="40.956164" lon="-73.866890"><ele>50</ele></trkpt>
<trkpt lat="40.957322" lon="-73.867617"><ele>47</ele></trkpt>
<trkpt lat="40.958608" lon="-73.868240"><ele>45</ele></trkpt>
<trkpt lat="40.959489" lon="-73.868654"><ele>44</ele></trkpt>
<trkpt lat="40.960677" lon="-73.869163"><ele>42</ele></trkpt>
<trkpt lat="40.961897" lon="-73.869670"><ele>39</ele></trkpt>
<trkpt lat="40.962908" lon="-73.869943"><ele>36</ele></trkpt>
<trkpt lat="40.964371" lon="-73.870370"><ele>34</ele></trkpt>
<trkpt lat="40.966562" lon="-73.870800"><ele>34</ele></trkpt>
<trkpt lat="40.967413" lon="-73.870809"><ele>34</ele></trkpt>
<trkpt lat="40.971757" lon="-73.868537"><ele>34</ele></trkpt>
<trkpt lat="40.973909" lon="-73.867795"><ele>35</ele></trkpt>
<trkpt lat="40.974735" lon="-73.867704"><ele>35</ele></trkpt>
<trkpt lat="40.976271" lon="-73.867599"><ele>35</ele></trkpt>
<trkpt lat="40.977512" lon="-73.867531"><ele>35</ele></trkpt>
<trkpt lat="40.979253" lon="-73.867430"><ele>35</ele></trkpt>
<trkpt lat="40.981659" lon="-73.866765"><ele>33</ele></trkpt>
<trkpt lat="40.983182" lon="-73.866240"><ele>35</ele></trkpt>
<trkpt lat="40.987782" lon="-73.864725"><ele>36</ele></trkpt>
<trkpt lat="40.989949" lon="-73.863813"><ele>37</ele></trkpt>
<trkpt lat="40.992357" lon="-73.862253"><ele>38</ele></trkpt>
<trkpt lat="40.996260" lon="-73.859721"><ele>38</ele></trkpt>
<trkpt lat="40.999435" lon="-73.857681"><ele>37</ele></trkpt>
<trkpt lat="41.001589" lon="-73.856315"><ele>36</ele></trkpt>
<trkpt lat="41.002453" lon="-73.855698"><ele>37</ele></trkpt>
<trkpt lat="41.003791" lon="-73.854823"><ele>38</ele></trkpt>
<trkpt lat="41.004307" lon="-73.854499"><ele>39</ele></trkpt>
<trkpt lat="41.005608" lon="-73.853654"><ele>38</ele></trkpt>
<trkpt lat="41.007163" lon="-73.853053"><ele>39</ele></trkpt>
<trkpt lat="41.008423" lon="-73.852676"><ele>40</ele></trkpt>
<trkpt lat="41.009509" lon="-73.852194"><ele>39</ele></trkpt>
<trkpt lat="41.009955" lon="-73.851957"><ele>40</ele></trkpt>
<trkpt lat="41.010437" lon="-73.851597"><ele>42</ele></trkpt>
<trkpt lat="41.012156" lon="-73.850083"><ele>43</ele></trkpt>
<trkpt lat="41.014404" lon="-73.848253"><ele>44</ele></trkpt>
<trkpt lat="41.015490" lon="-73.847903"><ele>44</ele></trkpt>
<trkpt lat="41.019682" lon="-73.846890"><ele>48</ele></trkpt>
<trkpt lat="41.021893" lon="-73.846367"><ele>48</ele></trkpt>
<trkpt lat="41.022768" lon="-73.845719"><ele>47</ele></trkpt>
<trkpt lat="41.023840" lon="-73.844522"><ele>51</ele></trkpt>
<trkpt lat="41.024001" lon="-73.844469"><ele>51</ele></trkpt>
<trkpt lat="41.024112" lon="-73.844492"><ele>51</ele></trkpt>
<trkpt lat="41.026171" lon="-73.843764"><ele>50</ele></trkpt>
<trkpt lat="41.027550" lon="-73.843550"><ele>51</ele></trkpt>
<trkpt lat="41.028279" lon="-73.843340"><ele>50</ele></trkpt>
<trkpt lat="41.028468" lon="-73.842956"><ele>52</ele></trkpt>
<trkpt lat="41.031554" lon="-73.841680"><ele>51</ele></trkpt>
<trkpt lat="41.034726" lon="-73.840321"><ele>51</ele></trkpt>
<trkpt lat="41.035939" lon="-73.839776"><ele>53</ele></trkpt>
<trkpt lat="41.038053" lon="-73.837975"><ele>51</ele></trkpt>
<trkpt lat="41.039652" lon="-73.837585"><ele>55</ele></trkpt>
<trkpt lat="41.041386" lon="-73.836987"><ele>53</ele></trkpt>
<trkpt lat="41.043348" lon="-73.835207"><ele>53</ele></trkpt>
<trkpt lat="41.043642" lon="-73.834829"><ele>53</ele></trkpt>
<trkpt lat="41.044178" lon="-73.834341"><ele>53</ele></trkpt>
<trkpt lat="41.044321" lon="-73.833723"><ele>55</ele></trkpt>
<trkpt lat="41.045278" lon="-73.832406"><ele>54</ele></trkpt>
<trkpt lat="41.045884" lon="-73.831273"><ele>53</ele></trkpt>
<trkpt lat="41.047556" lon="-73.827892"><ele>55</ele></trkpt>
<trkpt lat="41.049006" lon="-73.825513"><ele>55</ele></trkpt>
<trkpt lat="41.050524" lon="-73.823614"><ele>53</ele></trkpt>
<trkpt lat="41.053169" lon="-73.821586"><ele>53</ele></trkpt>
<trkpt lat="41.053512" lon="-73.821345"><ele>53</ele></trkpt>
<trkpt lat="41.054997" lon="-73.820488"><ele>53</ele></trkpt>
<trkpt lat="41.055011" lon="-73.820051"><ele>55</ele></trkpt>
<trkpt lat="41.055202" lon="-73.820502"><ele>53</ele></trkpt>
<trkpt lat="41.055346" lon="-73.820827"><ele>53</ele></trkpt>
<trkpt lat="41.055467" lon="-73.821087"><ele>55</ele></trkpt>
<trkpt lat="41.055691" lon="-73.821556"><ele>55</ele></trkpt>
<trkpt lat="41.055854" lon="-73.821864"><ele>54</ele></trkpt>
<trkpt lat="41.056043" lon="-73.822235"><ele>56</ele></trkpt>
<trkpt lat="41.056870" lon="-73.823931"><ele>62</ele></trkpt>
<trkpt lat="41.057387" lon="-73.824963"><ele>63</ele></trkpt>
<trkpt lat="41.057573" lon="-73.825259"><ele>62</ele></trkpt>
<trkpt lat="41.057887" lon="-73.825847"><ele>63</ele></trkpt>
<trkpt lat="41.058486" lon="-73.826977"><ele>61</ele></trkpt>
<trkpt lat="41.058733" lon="-73.827462"><ele>61</ele></trkpt>
<trkpt lat="41.059164" lon="-73.828363"><ele>64</ele></trkpt>
<trkpt lat="41.059387" lon="-73.828880"><ele>61</ele></trkpt>
<trkpt lat="41.059656" lon="-73.829519"><ele>60</ele></trkpt>
<trkpt lat="41.059776" lon="-73.829865"><ele>59</ele></trkpt>
<trkpt lat="41.059921" lon="-73.830256"><ele>58</ele></trkpt>
<trkpt lat="41.060146" lon="-73.830905"><ele>58</ele></trkpt>
<trkpt lat="41.060972" lon="-73.833267"><ele>59</ele></trkpt>
<trkpt lat="41.061313" lon="-73.834270"><ele>56</ele></trkpt>
<trkpt lat="41.061630" lon="-73.835190"><ele>56</ele></trkpt>
<trkpt lat="41.061775" lon="-73.835581"><ele>59</ele></trkpt>
<trkpt lat="41.062086" lon="-73.836339"><ele>59</ele></trkpt>
<trkpt lat="41.062251" lon="-73.836716"><ele>57</ele></trkpt>
<trkpt lat="41.062492" lon="-73.837256"><ele>54</ele></trkpt>
<trkpt lat="41.062719" lon="-73.837764"><ele>52</ele></trkpt>
<trkpt lat="41.063051" lon="-73.838506"><ele>52</ele></trkpt>
<trkpt lat="41.063194" lon="-73.838837"><ele>52</ele></trkpt>
<trkpt lat="41.063283" lon="-73.839070"><ele>52</ele></trkpt>
<trkpt lat="41.063385" lon="-73.839400"><ele>52</ele></trkpt>
<trkpt lat="41.063490" lon="-73.839811"><ele>53</ele></trkpt>
<trkpt lat="41.063569" lon="-73.840236"><ele>54</ele></trkpt>
<trkpt lat="41.063622" lon="-73.840664"><ele>53</ele></trkpt>
<trkpt lat="41.063645" lon="-73.841046"><ele>52</ele></trkpt>
<trkpt lat="41.063646" lon="-73.841401"><ele>52</ele></trkpt>
<trkpt lat="41.063625" lon="-73.841821"><ele>52</ele></trkpt>
<trkpt lat="41.063578" lon="-73.842255"><ele>52</ele></trkpt>
<trkpt lat="41.063521" lon="-73.842663"><ele>53</ele></trkpt>
<trkpt lat="41.063452" lon="-73.843109"><ele>57</ele></trkpt>
<trkpt lat="41.063395" lon="-73.843529"><ele>59</ele></trkpt>
<trkpt lat="41.063360" lon="-73.843924"><ele>59</ele></trkpt>
<trkpt lat="41.063350" lon="-73.844196"><ele>60</ele></trkpt>
<trkpt lat="41.063364" lon="-73.844679"><ele>63</ele></trkpt>
<trkpt lat="41.063399" lon="-73.845110"><ele>64</ele></trkpt>
<trkpt lat="41.063461" lon="-73.845537"><ele>64</ele></trkpt>
<trkpt lat="41.063547" lon="-73.845951"><ele>64</ele></trkpt>
<trkpt lat="41.063798" lon="-73.847058"><ele>64</ele></trkpt>
<trkpt lat="41.063871" lon="-73.847456"><ele>65</ele></trkpt>
<trkpt lat="41.064219" lon="-73.849789"><ele>67</ele></trkpt>
<trkpt lat="41.064277" lon="-73.850219"><ele>66</ele></trkpt>
<trkpt lat="41.064313" lon="-73.850652"><ele>63</ele></trkpt>
<trkpt lat="41.064326" lon="-73.851098"><ele>63</ele></trkpt>
<trkpt lat="41.064317" lon="-73.851534"><ele>63</ele></trkpt>
<trkpt lat="41.064288" lon="-73.851965"><ele>63</ele></trkpt>
<trkpt lat="41.064253" lon="-73.852394"><ele>63</ele></trkpt>
<trkpt lat="41.064212" lon="-73.852907"><ele>64</ele></trkpt>
<trkpt lat="41.064168" lon="-73.854025"><ele>64</ele></trkpt>
<trkpt lat="41.064169" lon="-73.854509"><ele>65</ele></trkpt>
<trkpt lat="41.064162" lon="-73.854982"><ele>65</ele></trkpt>
<trkpt lat="41.064153" lon="-73.855243"><ele>64</ele></trkpt>
<trkpt lat="41.064137" lon="-73.855512"><ele>63</ele></trkpt>
<trkpt lat="41.064105" lon="-73.855908"><ele>62</ele></trkpt>
<trkpt lat="41.064051" lon="-73.856385"><ele>61</ele></trkpt>
<trkpt lat="41.063922" lon="-73.857343"><ele>57</ele></trkpt>
<trkpt lat="41.063799" lon="-73.858288"><ele>57</ele></trkpt>
<trkpt lat="41.063667" lon="-73.859258"><ele>58</ele></trkpt>
<trkpt lat="41.063635" lon="-73.859548"><ele>58</ele></trkpt>
<trkpt lat="41.063615" lon="-73.859833"><ele>57</ele></trkpt>
<trkpt lat="41.063607" lon="-73.860261"><ele>54</ele></trkpt>
<trkpt lat="41.063626" lon="-73.860801"><ele>48</ele></trkpt>
<trkpt lat="41.063699" lon="-73.861480"><ele>46</ele></trkpt>
<trkpt lat="41.063728" lon="-73.862047"><ele>44</ele></trkpt>
<trkpt lat="41.063797" lon="-73.862373"><ele>43</ele></trkpt>
<trkpt lat="41.064468" lon="-73.862390"><ele>41</ele></trkpt>
<trkpt lat="41.065078" lon="-73.862415"><ele>40</ele></trkpt>
<trkpt lat="41.065392" lon="-73.862433"><ele>39</ele></trkpt>
<trkpt lat="41.065767" lon="-73.862448"><ele>39</ele></trkpt>
<trkpt lat="41.065778" lon="-73.862907"><ele>39</ele></trkpt>
<trkpt lat="41.065749" lon="-73.863092"><ele>39</ele></trkpt>
<trkpt lat="41.065703" lon="-73.863224"><ele>39</ele></trkpt>
<trkpt lat="41.065717" lon="-73.863510"><ele>39</ele></trkpt>
<trkpt lat="41.065814" lon="-73.863699"><ele>39</ele></trkpt>
<trkpt lat="41.065836" lon="-73.863758"><ele>38</ele></trkpt>
<trkpt lat="41.065873" lon="-73.864410"><ele>37</ele></trkpt>
<trkpt lat="41.065907" lon="-73.864526"><ele>36</ele></trkpt>
<trkpt lat="41.065966" lon="-73.864617"><ele>36</ele></trkpt>
<trkpt lat="41.066379" lon="-73.865107"><ele>33</ele></trkpt>
<trkpt lat="41.066455" lon="-73.865211"><ele>33</ele></trkpt>
<trkpt lat="41.066525" lon="-73.865328"><ele>33</ele></trkpt>
<trkpt lat="41.066587" lon="-73.865452"><ele>32</ele></trkpt>
<trkpt lat="41.066655" lon="-73.865577"><ele>31</ele></trkpt>
<trkpt lat="41.066727" lon="-73.865694"><ele>31</ele></trkpt>
<trkpt lat="41.066802" lon="-73.865803"><ele>30</ele></trkpt>
<trkpt lat="41.066899" lon="-73.865924"><ele>29</ele></trkpt>
<trkpt lat="41.067062" lon="-73.866095"><ele>29</ele></trkpt>
<trkpt lat="41.068135" lon="-73.867189"><ele>1</ele></trkpt>
<trkpt lat="41.068475" lon="-73.867569"><ele>8</ele></trkpt>
<trkpt lat="41.068809" lon="-73.867953"><ele>5</ele></trkpt>
<trkpt lat="41.069058" lon="-73.868251"><ele>4</ele></trkpt>
<trkpt lat="41.069295" lon="-73.868560"><ele>4</ele></trkpt>
<trkpt lat="41.069524" lon="-73.868885"><ele>3</ele></trkpt>
<trkpt lat="41.069741" lon="-73.869224"><ele>1</ele></trkpt>
<trkpt lat="41.069953" lon="-73.869580"><ele>1</ele></trkpt>
<trkpt lat="41.070144" lon="-73.869936"><ele>-7</ele></trkpt>
<trkpt lat="41.070327" lon="-73.870305"><ele>-11</ele></trkpt>
<trkpt lat="41.070497" lon="-73.870689"><ele>-11</ele></trkpt>
<trkpt lat="41.070655" lon="-73.871079"><ele>-12</ele></trkpt>
<trkpt lat="41.070800" lon="-73.871478"><ele>-13</ele></trkpt>
<trkpt lat="41.070931" lon="-73.871888"><ele>-14</ele></trkpt>
<trkpt lat="41.071050" lon="-73.872304"><ele>-14</ele></trkpt>
<trkpt lat="41.071153" lon="-73.872719"><ele>-15</ele></trkpt>
<trkpt lat="41.071245" lon="-73.873149"><ele>-15</ele></trkpt>
<trkpt lat="41.071321" lon="-73.873579"><ele>-15</ele></trkpt>
<trkpt lat="41.071384" lon="-73.874015"><ele>-15</ele></trkpt>
<trkpt lat="41.071433" lon="-73.874457"><ele>-1</ele></trkpt>
<trkpt lat="41.071467" lon="-73.874896"><ele>-16</ele></trkpt>
<trkpt lat="41.071486" lon="-73.875338"><ele>-15</ele></trkpt>
<trkpt lat="41.071491" lon="-73.875785"><ele>-2</ele></trkpt>
<trkpt lat="41.071493" lon="-73.877537"><ele>-15</ele></trkpt>
<trkpt lat="41.071492" lon="-73.883218"><ele>-10</ele></trkpt>
<trkpt lat="41.071491" lon="-73.885546"><ele>-8</ele></trkpt>
<trkpt lat="41.071489" lon="-73.887293"><ele>-6</ele></trkpt>
<trkpt lat="41.071478" lon="-73.888750"><ele>-5</ele></trkpt>
<trkpt lat="41.071453" lon="-73.890498"><ele>-3</ele></trkpt>
<trkpt lat="41.071429" lon="-73.892241"><ele>-2</ele></trkpt>
<trkpt lat="41.071417" lon="-73.893987"><ele>-1</ele></trkpt>
<trkpt lat="41.071412" lon="-73.907665"><ele>-16</ele></trkpt>
<trkpt lat="41.071411" lon="-73.911452"><ele>-17</ele></trkpt>
<trkpt lat="41.071421" lon="-73.911880"><ele>-16</ele></trkpt>
<trkpt lat="41.071447" lon="-73.912310"><ele>-16</ele></trkpt>
<trkpt lat="41.071489" lon="-73.912740"><ele>-15</ele></trkpt>
<trkpt lat="41.071544" lon="-73.913164"><ele>-14</ele></trkpt>
<trkpt lat="41.071614" lon="-73.913583"><ele>-12</ele></trkpt>
<trkpt lat="41.071699" lon="-73.914002"><ele>-12</ele></trkpt>
<trkpt lat="41.071797" lon="-73.914414"><ele>-10</ele></trkpt>
<trkpt lat="41.071909" lon="-73.914819"><ele>-9</ele></trkpt>
<trkpt lat="41.072035" lon="-73.915216"><ele>-7</ele></trkpt>
<trkpt lat="41.072174" lon="-73.915607"><ele>-5</ele></trkpt>
<trkpt lat="41.072326" lon="-73.915988"><ele>-3</ele></trkpt>
<trkpt lat="41.072490" lon="-73.916358"><ele>-1</ele></trkpt>
<trkpt lat="41.072669" lon="-73.916722"><ele>0</ele></trkpt>
<trkpt lat="41.072858" lon="-73.917073"><ele>3</ele></trkpt>
<trkpt lat="41.073059" lon="-73.917408"><ele>5</ele></trkpt>
<trkpt lat="41.073271" lon="-73.917734"><ele>7</ele></trkpt>
<trkpt lat="41.073495" lon="-73.918049"><ele>10</ele></trkpt>
<trkpt lat="41.073732" lon="-73.918356"><ele>9</ele></trkpt>
<trkpt lat="41.073971" lon="-73.918636"><ele>3</ele></trkpt>
<trkpt lat="41.074226" lon="-73.918908"><ele>0</ele></trkpt>
<trkpt lat="41.074488" lon="-73.919165"><ele>4</ele></trkpt>
<trkpt lat="41.074763" lon="-73.919405"><ele>2</ele></trkpt>
<trkpt lat="41.074959" lon="-73.919561"><ele>3</ele></trkpt>
<trkpt lat="41.075091" lon="-73.919663"><ele>4</ele></trkpt>
<trkpt lat="41.075171" lon="-73.919716"><ele>4</ele></trkpt>
<trkpt lat="41.075240" lon="-73.919744"><ele>5</ele></trkpt>
<trkpt lat="41.075552" lon="-73.919801"><ele>8</ele></trkpt>
<trkpt lat="41.075623" lon="-73.919836"><ele>9</ele></trkpt>
<trkpt lat="41.075682" lon="-73.919896"><ele>10</ele></trkpt>
<trkpt lat="41.075752" lon="-73.919981"><ele>11</ele></trkpt>
<trkpt lat="41.076232" lon="-73.920217"><ele>12</ele></trkpt>
<trkpt lat="41.076545" lon="-73.920357"><ele>13</ele></trkpt>
<trkpt lat="41.076861" lon="-73.920472"><ele>14</ele></trkpt>
<trkpt lat="41.077626" lon="-73.920740"><ele>17</ele></trkpt>
<trkpt lat="41.077991" lon="-73.920864"><ele>19</ele></trkpt>
<trkpt lat="41.078152" lon="-73.920916"><ele>20</ele></trkpt>
<trkpt lat="41.078291" lon="-73.920974"><ele>20</ele></trkpt>
<trkpt lat="41.078677" lon="-73.921114"><ele>23</ele></trkpt>
<trkpt lat="41.078845" lon="-73.921193"><ele>23</ele></trkpt>
<trkpt lat="41.079075" lon="-73.921286"><ele>23</ele></trkpt>
<trkpt lat="41.079321" lon="-73.921355"><ele>23</ele></trkpt>
<trkpt lat="41.079348" lon="-73.921312"><ele>23</ele></trkpt>
<trkpt lat="41.079388" lon="-73.921292"><ele>24</ele></trkpt>
<trkpt lat="41.079450" lon="-73.921313"><ele>24</ele></trkpt>
<trkpt lat="41.079765" lon="-73.921466"><ele>25</ele></trkpt>
<trkpt lat="41.079858" lon="-73.921473"><ele>26</ele></trkpt>
<trkpt lat="41.079954" lon="-73.921420"><ele>28</ele></trkpt>
<trkpt lat="41.080100" lon="-73.921297"><ele>28</ele></trkpt>
<trkpt lat="41.080271" lon="-73.921183"><ele>27</ele></trkpt>
<trkpt lat="41.080356" lon="-73.921147"><ele>27</ele></trkpt>
<trkpt lat="41.080454" lon="-73.921147"><ele>29</ele></trkpt>
<trkpt lat="41.080885" lon="-73.920980"><ele>28</ele></trkpt>
<trkpt lat="41.081407" lon="-73.920896"><ele>29</ele></trkpt>
<trkpt lat="41.082031" lon="-73.920994"><ele>28</ele></trkpt>
<trkpt lat="41.082691" lon="-73.921336"><ele>28</ele></trkpt>
<trkpt lat="41.083002" lon="-73.921534"><ele>28</ele></trkpt>
<trkpt lat="41.083378" lon="-73.921655"><ele>27</ele></trkpt>
<trkpt lat="41.083443" lon="-73.921627"><ele>27</ele></trkpt>
<trkpt lat="41.083591" lon="-73.921646"><ele>27</ele></trkpt>
<trkpt lat="41.084691" lon="-73.921571"><ele>27</ele></trkpt>
<trkpt lat="41.084571" lon="-73.920577"><ele>24</ele></trkpt>
<trkpt lat="41.084482" lon="-73.919857"><ele>21</ele></trkpt>
<trkpt lat="41.085448" lon="-73.919647"><ele>19</ele></trkpt>
<trkpt lat="41.086143" lon="-73.919486"><ele>19</ele></trkpt>
<trkpt lat="41.086932" lon="-73.919312"><ele>18</ele></trkpt>
<trkpt lat="41.087404" lon="-73.919210"><ele>18</ele></trkpt>
<trkpt lat="41.088367" lon="-73.919003"><ele>17</ele></trkpt>
<trkpt lat="41.089215" lon="-73.918764"><ele>20</ele></trkpt>
<trkpt lat="41.089941" lon="-73.917947"><ele>18</ele></trkpt>
<trkpt lat="41.089941" lon="-73.917947"><ele>18</ele></trkpt>
<trkpt lat="41.089706" lon="-73.917208"><ele>14</ele></trkpt>
<trkpt lat="41.090633" lon="-73.916768"><ele>15</ele></trkpt>
<trkpt lat="41.090764" lon="-73.916997"><ele>17</ele></trkpt>
<trkpt lat="41.090824" lon="-73.917285"><ele>18</ele></trkpt>
<trkpt lat="41.090977" lon="-73.918161"><ele>23</ele></trkpt>
<trkpt lat="41.091101" lon="-73.918882"><ele>25</ele></trkpt>
<trkpt lat="41.091236" lon="-73.919698"><ele>26</ele></trkpt>
<trkpt lat="41.091327" lon="-73.920216"><ele>26</ele></trkpt>
<trkpt lat="41.091433" lon="-73.920873"><ele>26</ele></trkpt>
<trkpt lat="41.091527" lon="-73.921472"><ele>27</ele></trkpt>
<trkpt lat="41.092267" lon="-73.921421"><ele>28</ele></trkpt>
<trkpt lat="41.092642" lon="-73.921321"><ele>30</ele></trkpt>
<trkpt lat="41.093070" lon="-73.921199"><ele>31</ele></trkpt>
<trkpt lat="41.093658" lon="-73.920978"><ele>34</ele></trkpt>
<trkpt lat="41.094516" lon="-73.921527"><ele>45</ele></trkpt>
<trkpt lat="41.094739" lon="-73.922222"><ele>51</ele></trkpt>
<trkpt lat="41.094843" lon="-73.922715"><ele>54</ele></trkpt>
<trkpt lat="41.095021" lon="-73.923544"><ele>57</ele></trkpt>
<trkpt lat="41.095346" lon="-73.925061"><ele>59</ele></trkpt>
<trkpt lat="41.095918" lon="-73.924999"><ele>61</ele></trkpt>
<trkpt lat="41.096740" lon="-73.924678"><ele>64</ele></trkpt>
<trkpt lat="41.096949" lon="-73.925678"><ele>66</ele></trkpt>
<trkpt lat="41.098991" lon="-73.926205"><ele>76</ele></trkpt>
<trkpt lat="41.099840" lon="-73.926083"><ele>81</ele></trkpt>
<trkpt lat="41.100961" lon="-73.926012"><ele>90</ele></trkpt>
<trkpt lat="41.102061" lon="-73.925994"><ele>98</ele></trkpt>
<trkpt lat="41.102431" lon="-73.925987"><ele>99</ele></trkpt>
<trkpt lat="41.102646" lon="-73.925988"><ele>100</ele></trkpt>
<trkpt lat="41.103004" lon="-73.926024"><ele>100</ele></trkpt>
<trkpt lat="41.103352" lon="-73.926094"><ele>102</ele></trkpt>
<trkpt lat="41.103746" lon="-73.926220"><ele>102</ele></trkpt>
<trkpt lat="41.104935" lon="-73.926771"><ele>106</ele></trkpt>
<trkpt lat="41.105517" lon="-73.926999"><ele>104</ele></trkpt>
<trkpt lat="41.105876" lon="-73.927083"><ele>103</ele></trkpt>
<trkpt lat="41.106624" lon="-73.927179"><ele>98</ele></trkpt>
<trkpt lat="41.107323" lon="-73.927254"><ele>94</ele></trkpt>
<trkpt lat="41.107530" lon="-73.927273"><ele>93</ele></trkpt>
<trkpt lat="41.107702" lon="-73.927283"><ele>93</ele></trkpt>
<trkpt lat="41.107943" lon="-73.927276"><ele>91</ele></trkpt>
<trkpt lat="41.108769" lon="-73.927198"><ele>86</ele></trkpt>
<trkpt lat="41.109052" lon="-73.927173"><ele>86</ele></trkpt>
<trkpt lat="41.109212" lon="-73.927357"><ele>86</ele></trkpt>
<trkpt lat="41.109226" lon="-73.927670"><ele>86</ele></trkpt>
<trkpt lat="41.109197" lon="-73.927907"><ele>86</ele></trkpt>
<trkpt lat="41.109156" lon="-73.928083"><ele>87</ele></trkpt>
<trkpt lat="41.109092" lon="-73.928311"><ele>88</ele></trkpt>
<trkpt lat="41.109023" lon="-73.928543"><ele>91</ele></trkpt>
<trkpt lat="41.108972" lon="-73.928723"><ele>93</ele></trkpt>
<trkpt lat="41.108910" lon="-73.928993"><ele>96</ele></trkpt>
<trkpt lat="41.108873" lon="-73.929299"><ele>99</ele></trkpt>
<trkpt lat="41.108872" lon="-73.929804"><ele>105</ele></trkpt>
<trkpt lat="41.108851" lon="-73.930623"><ele>110</ele></trkpt>
<trkpt lat="41.108850" lon="-73.930915"><ele>111</ele></trkpt>
<trkpt lat="41.108862" lon="-73.931187"><ele>112</ele></trkpt>
<trkpt lat="41.108966" lon="-73.932427"><ele>115</ele></trkpt>
<trkpt lat="41.109031" lon="-73.933275"><ele>115</ele></trkpt>
<trkpt lat="41.109065" lon="-73.933746"><ele>117</ele></trkpt>
<trkpt lat="41.109070" lon="-73.934036"><ele>117</ele></trkpt>
<trkpt lat="41.109046" lon="-73.934311"><ele>120</ele></trkpt>
<trkpt lat="41.108986" lon="-73.934700"><ele>125</ele></trkpt>
<trkpt lat="41.108975" lon="-73.934929"><ele>129</ele></trkpt>
<trkpt lat="41.109013" lon="-73.935099"><ele>131</ele></trkpt>
<trkpt lat="41.109116" lon="-73.935254"><ele>131</ele></trkpt>
<trkpt lat="41.109792" lon="-73.936076"><ele>129</ele></trkpt>
<trkpt lat="41.110432" lon="-73.936634"><ele>125</ele></trkpt>
<trkpt lat="41.110716" lon="-73.936822"><ele>123</ele></trkpt>
<trkpt lat="41.111496" lon="-73.937333"><ele>121</ele></trkpt>
<trkpt lat="41.111856" lon="-73.937651"><ele>121</ele></trkpt>
<trkpt lat="41.112589" lon="-73.938200"><ele>118</ele></trkpt>
<trkpt lat="41.114270" lon="-73.939024"><ele>102</ele></trkpt>
<trkpt lat="41.114897" lon="-73.939487"><ele>95</ele></trkpt>
<trkpt lat="41.115469" lon="-73.939761"><ele>86</ele></trkpt>
<trkpt lat="41.116749" lon="-73.940070"><ele>75</ele></trkpt>
<trkpt lat="41.117551" lon="-73.940061"><ele>68</ele></trkpt>
<trkpt lat="41.117816" lon="-73.940207"><ele>67</ele></trkpt>
<trkpt lat="41.118030" lon="-73.940499"><ele>67</ele></trkpt>
<trkpt lat="41.118379" lon="-73.941091"><ele>59</ele></trkpt>
<trkpt lat="41.118987" lon="-73.941005"><ele>55</ele></trkpt>
<trkpt lat="41.121069" lon="-73.940653"><ele>47</ele></trkpt>
<trkpt lat="41.121772" lon="-73.940515"><ele>46</ele></trkpt>
<trkpt lat="41.122618" lon="-73.940335"><ele>47</ele></trkpt>
<trkpt lat="41.123027" lon="-73.940260"><ele>47</ele></trkpt>
<trkpt lat="41.123543" lon="-73.940171"><ele>47</ele></trkpt>
<trkpt lat="41.124579" lon="-73.939992"><ele>49</ele></trkpt>
<trkpt lat="41.125614" lon="-73.939778"><ele>51</ele></trkpt>
<trkpt lat="41.127696" lon="-73.939211"><ele>55</ele></trkpt>
<trkpt lat="41.129305" lon="-73.938705"><ele>62</ele></trkpt>
<trkpt lat="41.130556" lon="-73.938208"><ele>67</ele></trkpt>
<trkpt lat="41.132063" lon="-73.937620"><ele>71</ele></trkpt>
<trkpt lat="41.133110" lon="-73.937199"><ele>73</ele></trkpt>
<trkpt lat="41.134652" lon="-73.936842"><ele>70</ele></trkpt>
<trkpt lat="41.135723" lon="-73.936620"><ele>66</ele></trkpt>
<trkpt lat="41.136582" lon="-73.936423"><ele>62</ele></trkpt>
<trkpt lat="41.137448" lon="-73.936237"><ele>60</ele></trkpt>
<trkpt lat="41.138378" lon="-73.936300"><ele>59</ele></trkpt>
<trkpt lat="41.141064" lon="-73.934851"><ele>55</ele></trkpt>
<trkpt lat="41.144923" lon="-73.933984"><ele>49</ele></trkpt>
<trkpt lat="41.146648" lon="-73.933777"><ele>45</ele></trkpt>
<trkpt lat="41.147059" lon="-73.934631"><ele>43</ele></trkpt>
<trkpt lat="41.147763" lon="-73.935624"><ele>42</ele></trkpt>
<trkpt lat="41.148163" lon="-73.936184"><ele>42</ele></trkpt>
<trkpt lat="41.148736" lon="-73.936980"><ele>43</ele></trkpt>
<trkpt lat="41.149228" lon="-73.937653"><ele>43</ele></trkpt>
<trkpt lat="41.149678" lon="-73.938279"><ele>44</ele></trkpt>
<trkpt lat="41.149888" lon="-73.938714"><ele>44</ele></trkpt>
<trkpt lat="41.149945" lon="-73.938939"><ele>44</ele></trkpt>
<trkpt lat="41.150072" lon="-73.939563"><ele>45</ele></trkpt>
<trkpt lat="41.150311" lon="-73.940679"><ele>50</ele></trkpt>
<trkpt lat="41.150542" lon="-73.941470"><ele>52</ele></trkpt>
<trkpt lat="41.150587" lon="-73.941650"><ele>52</ele></trkpt>
<trkpt lat="41.150626" lon="-73.941872"><ele>54</ele></trkpt>
<trkpt lat="41.150692" lon="-73.942353"><ele>58</ele></trkpt>
<trkpt lat="41.151101" lon="-73.943826"><ele>58</ele></trkpt>
<trkpt lat="41.151864" lon="-73.943820"><ele>60</ele></trkpt>
<trkpt lat="41.155375" lon="-73.943835"><ele>69</ele></trkpt>
<trkpt lat="41.157328" lon="-73.943840"><ele>69</ele></trkpt>
<trkpt lat="41.157755" lon="-73.945199"><ele>59</ele></trkpt>
<trkpt lat="41.160086" lon="-73.944958"><ele>58</ele></trkpt>
<trkpt lat="41.161722" lon="-73.945034"><ele>61</ele></trkpt>
<trkpt lat="41.163801" lon="-73.945265"><ele>61</ele></trkpt>
<trkpt lat="41.164506" lon="-73.945264"><ele>61</ele></trkpt>
<trkpt lat="41.165361" lon="-73.945068"><ele>61</ele></trkpt>
<trkpt lat="41.166416" lon="-73.944834"><ele>56</ele></trkpt>
<trkpt lat="41.167940" lon="-73.944522"><ele>51</ele></trkpt>
<trkpt lat="41.168123" lon="-73.944493"><ele>51</ele></trkpt>
<trkpt lat="41.168305" lon="-73.944496"><ele>51</ele></trkpt>
<trkpt lat="41.168484" lon="-73.944538"><ele>51</ele></trkpt>
<trkpt lat="41.168640" lon="-73.944600"><ele>51</ele></trkpt>
<trkpt lat="41.168807" lon="-73.944687"><ele>52</ele></trkpt>
<trkpt lat="41.169291" lon="-73.944972"><ele>53</ele></trkpt>
<trkpt lat="41.169714" lon="-73.945214"><ele>53</ele></trkpt>
<trkpt lat="41.169971" lon="-73.945339"><ele>54</ele></trkpt>
<trkpt lat="41.170271" lon="-73.945469"><ele>54</ele></trkpt>
<trkpt lat="41.171112" lon="-73.945778"><ele>55</ele></trkpt>
<trkpt lat="41.172175" lon="-73.946146"><ele>56</ele></trkpt>
<trkpt lat="41.172548" lon="-73.946286"><ele>58</ele></trkpt>
<trkpt lat="41.172764" lon="-73.946383"><ele>59</ele></trkpt>
<trkpt lat="41.172854" lon="-73.946461"><ele>58</ele></trkpt>
<trkpt lat="41.172917" lon="-73.946558"><ele>58</ele></trkpt>
<trkpt lat="41.172953" lon="-73.946673"><ele>57</ele></trkpt>
<trkpt lat="41.172962" lon="-73.946808"><ele>57</ele></trkpt>
<trkpt lat="41.172946" lon="-73.947096"><ele>58</ele></trkpt>
<trkpt lat="41.172932" lon="-73.947343"><ele>59</ele></trkpt>
<trkpt lat="41.172936" lon="-73.947490"><ele>59</ele></trkpt>
<trkpt lat="41.172967" lon="-73.947613"><ele>59</ele></trkpt>
<trkpt lat="41.173021" lon="-73.947711"><ele>60</ele></trkpt>
<trkpt lat="41.172206" lon="-73.949906"><ele>49</ele></trkpt>
<trkpt lat="41.171804" lon="-73.950853"><ele>45</ele></trkpt>
<trkpt lat="41.171565" lon="-73.951952"><ele>41</ele></trkpt>
<trkpt lat="41.171832" lon="-73.952192"><ele>39</ele></trkpt>
<trkpt lat="41.172077" lon="-73.952459"><ele>38</ele></trkpt>
<trkpt lat="41.172416" lon="-73.952898"><ele>38</ele></trkpt>
<trkpt lat="41.172562" lon="-73.953041"><ele>38</ele></trkpt>
<trkpt lat="41.172726" lon="-73.953127"><ele>39</ele></trkpt>
<trkpt lat="41.172922" lon="-73.953156"><ele>40</ele></trkpt>
<trkpt lat="41.173644" lon="-73.953153"><ele>43</ele></trkpt>
<trkpt lat="41.173677" lon="-73.953644"><ele>41</ele></trkpt>
<trkpt lat="41.173728" lon="-73.954161"><ele>40</ele></trkpt>
<trkpt lat="41.173728" lon="-73.954316"><ele>40</ele></trkpt>
<trkpt lat="41.173703" lon="-73.954468"><ele>39</ele></trkpt>
<trkpt lat="41.173638" lon="-73.954651"><ele>38</ele></trkpt>
<trkpt lat="41.173378" lon="-73.955318"><ele>37</ele></trkpt>
<trkpt lat="41.173839" lon="-73.955881"><ele>37</ele></trkpt>
<trkpt lat="41.174573" lon="-73.956848"><ele>40</ele></trkpt>
<trkpt lat="41.174803" lon="-73.957125"><ele>42</ele></trkpt>
<trkpt lat="41.175063" lon="-73.957361"><ele>43</ele></trkpt>
<trkpt lat="41.175511" lon="-73.957742"><ele>42</ele></trkpt>
<trkpt lat="41.175761" lon="-73.957949"><ele>43</ele></trkpt>
<trkpt lat="41.175983" lon="-73.958082"><ele>44</ele></trkpt>
<trkpt lat="41.176180" lon="-73.958145"><ele>45</ele></trkpt>
<trkpt lat="41.176465" lon="-73.958205"><ele>48</ele></trkpt>
<trkpt lat="41.176693" lon="-73.958215"><ele>50</ele></trkpt>
<trkpt lat="41.176916" lon="-73.958175"><ele>51</ele></trkpt>
<trkpt lat="41.177080" lon="-73.958170"><ele>53</ele></trkpt>
<trkpt lat="41.177228" lon="-73.958203"><ele>55</ele></trkpt>
<trkpt lat="41.177299" lon="-73.958199"><ele>56</ele></trkpt>
<trkpt lat="41.177367" lon="-73.958102"><ele>57</ele></trkpt>
<trkpt lat="41.177564" lon="-73.957874"><ele>60</ele></trkpt>
<trkpt lat="41.177745" lon="-73.957720"><ele>61</ele></trkpt>
<trkpt lat="41.177886" lon="-73.957644"><ele>64</ele></trkpt>
<trkpt lat="41.178017" lon="-73.957623"><ele>66</ele></trkpt>
<trkpt lat="41.178304" lon="-73.957653"><ele>69</ele></trkpt>
<trkpt lat="41.178538" lon="-73.957522"><ele>71</ele></trkpt>
<trkpt lat="41.178785" lon="-73.957410"><ele>71</ele></trkpt>
<trkpt lat="41.179042" lon="-73.957330"><ele>72</ele></trkpt>
<trkpt lat="41.179551" lon="-73.957310"><ele>73</ele></trkpt>
<trkpt lat="41.179677" lon="-73.957309"><ele>73</ele></trkpt>
<trkpt lat="41.179793" lon="-73.957293"><ele>73</ele></trkpt>
<trkpt lat="41.179908" lon="-73.957261"><ele>73</ele></trkpt>
<trkpt lat="41.180023" lon="-73.957211"><ele>72</ele></trkpt>
<trkpt lat="41.180134" lon="-73.957138"><ele>73</ele></trkpt>
<trkpt lat="41.180235" lon="-73.957040"><ele>73</ele></trkpt>
<trkpt lat="41.180352" lon="-73.956894"><ele>74</ele></trkpt>
<trkpt lat="41.180522" lon="-73.956630"><ele>73</ele></trkpt>
<trkpt lat="41.180700" lon="-73.956338"><ele>74</ele></trkpt>
<trkpt lat="41.180912" lon="-73.956030"><ele>71</ele></trkpt>
<trkpt lat="41.181458" lon="-73.955286"><ele>68</ele></trkpt>
<trkpt lat="41.181569" lon="-73.955164"><ele>69</ele></trkpt>
<trkpt lat="41.181698" lon="-73.955070"><ele>67</ele></trkpt>
<trkpt lat="41.181834" lon="-73.955023"><ele>61</ele></trkpt>
<trkpt lat="41.181992" lon="-73.955031"><ele>57</ele></trkpt>
<trkpt lat="41.182147" lon="-73.955096"><ele>56</ele></trkpt>
<trkpt lat="41.182266" lon="-73.955126"><ele>54</ele></trkpt>
<trkpt lat="41.182446" lon="-73.955236"><ele>50</ele></trkpt>
<trkpt lat="41.183908" lon="-73.956652"><ele>42</ele></trkpt>
<trkpt lat="41.184889" lon="-73.957640"><ele>44</ele></trkpt>
<trkpt lat="41.186060" lon="-73.958837"><ele>41</ele></trkpt>
<trkpt lat="41.187500" lon="-73.960346"><ele>48</ele></trkpt>
<trkpt lat="41.187614" lon="-73.960143"><ele>40</ele></trkpt>
<trkpt lat="41.187675" lon="-73.959986"><ele>37</ele></trkpt>
<trkpt lat="41.187701" lon="-73.959799"><ele>42</ele></trkpt>
<trkpt lat="41.187682" lon="-73.959646"><ele>41</ele></trkpt>
<trkpt lat="41.187620" lon="-73.959489"><ele>38</ele></trkpt>
<trkpt lat="41.187525" lon="-73.959360"><ele>41</ele></trkpt>
<trkpt lat="41.187296" lon="-73.959169"><ele>40</ele></trkpt>
<trkpt lat="41.186715" lon="-73.958713"><ele>34</ele></trkpt>
<trkpt lat="41.186563" lon="-73.958556"><ele>32</ele></trkpt>
<trkpt lat="41.186453" lon="-73.958348"><ele>31</ele></trkpt>
<trkpt lat="41.186395" lon="-73.958087"><ele>29</ele></trkpt>
<trkpt lat="41.186402" lon="-73.957828"><ele>18</ele></trkpt>
<trkpt lat="41.186449" lon="-73.957635"><ele>15</ele></trkpt>
<trkpt lat="41.186528" lon="-73.957462"><ele>16</ele></trkpt>
<trkpt lat="41.186645" lon="-73.957311"><ele>23</ele></trkpt>
<trkpt lat="41.186791" lon="-73.957207"><ele>25</ele></trkpt>
<trkpt lat="41.186966" lon="-73.957152"><ele>20</ele></trkpt>
<trkpt lat="41.187139" lon="-73.957164"><ele>20</ele></trkpt>
<trkpt lat="41.187273" lon="-73.957216"><ele>20</ele></trkpt>
<trkpt lat="41.187403" lon="-73.957316"><ele>15</ele></trkpt>
<trkpt lat="41.187516" lon="-73.957462"><ele>17</ele></trkpt>
<trkpt lat="41.187598" lon="-73.957643"><ele>13</ele></trkpt>
<trkpt lat="41.187644" lon="-73.957851"><ele>11</ele></trkpt>
<trkpt lat="41.187651" lon="-73.958054"><ele>13</ele></trkpt>
<trkpt lat="41.187626" lon="-73.958235"><ele>13</ele></trkpt>
<trkpt lat="41.187541" lon="-73.958503"><ele>15</ele></trkpt>
<trkpt lat="41.188297" lon="-73.959027"><ele>15</ele></trkpt>
<trkpt lat="41.188779" lon="-73.959356"><ele>15</ele></trkpt>
<trkpt lat="41.189413" lon="-73.959794"><ele>14</ele></trkpt>
<trkpt lat="41.189559" lon="-73.959883"><ele>14</ele></trkpt>
<trkpt lat="41.189693" lon="-73.959941"><ele>14</ele></trkpt>
<trkpt lat="41.189882" lon="-73.960000"><ele>13</ele></trkpt>
<trkpt lat="41.190675" lon="-73.960192"><ele>9</ele></trkpt>
<trkpt lat="41.191179" lon="-73.960199"><ele>6</ele></trkpt>
<trkpt lat="41.191810" lon="-73.960747"><ele>4</ele></trkpt>
<trkpt lat="41.192367" lon="-73.960647"><ele>4</ele></trkpt>
<trkpt lat="41.192942" lon="-73.960758"><ele>4</ele></trkpt>
<trkpt lat="41.193762" lon="-73.961634"><ele>8</ele></trkpt>
<trkpt lat="41.194628" lon="-73.962758"><ele>9</ele></trkpt>
<trkpt lat="41.195490" lon="-73.963826"><ele>10</ele></trkpt>
<trkpt lat="41.195710" lon="-73.964036"><ele>10</ele></trkpt>
<trkpt lat="41.196259" lon="-73.964257"><ele>11</ele></trkpt>
<trkpt lat="41.196607" lon="-73.964402"><ele>12</ele></trkpt>
<trkpt lat="41.196695" lon="-73.964457"><ele>12</ele></trkpt>
<trkpt lat="41.197547" lon="-73.964647"><ele>11</ele></trkpt>
<trkpt lat="41.198510" lon="-73.964822"><ele>9</ele></trkpt>
<trkpt lat="41.200092" lon="-73.965808"><ele>9</ele></trkpt>
<trkpt lat="41.200775" lon="-73.966748"><ele>11</ele></trkpt>
<trkpt lat="41.200975" lon="-73.967801"><ele>10</ele></trkpt>
<trkpt lat="41.201082" lon="-73.968662"><ele>11</ele></trkpt>
<trkpt lat="41.201040" lon="-73.969464"><ele>11</ele></trkpt>
<trkpt lat="41.201509" lon="-73.970453"><ele>11</ele></trkpt>
<trkpt lat="41.201713" lon="-73.971475"><ele>12</ele></trkpt>
<trkpt lat="41.201924" lon="-73.972397"><ele>9</ele></trkpt>
<trkpt lat="41.202284" lon="-73.972808"><ele>8</ele></trkpt>
<trkpt lat="41.203105" lon="-73.973196"><ele>8</ele></trkpt>
<trkpt lat="41.203869" lon="-73.973942"><ele>11</ele></trkpt>
<trkpt lat="41.204744" lon="-73.974829"><ele>16</ele></trkpt>
<trkpt lat="41.205084" lon="-73.975589"><ele>17</ele></trkpt>
<trkpt lat="41.205561" lon="-73.976816"><ele>19</ele></trkpt>
<trkpt lat="41.206278" lon="-73.978352"><ele>23</ele></trkpt>
<trkpt lat="41.206719" lon="-73.979297"><ele>27</ele></trkpt>
<trkpt lat="41.207104" lon="-73.980125"><ele>28</ele></trkpt>
<trkpt lat="41.207181" lon="-73.980270"><ele>28</ele></trkpt>
<trkpt lat="41.207260" lon="-73.980376"><ele>28</ele></trkpt>
<trkpt lat="41.207350" lon="-73.980460"><ele>27</ele></trkpt>
<trkpt lat="41.207443" lon="-73.980520"><ele>27</ele></trkpt>
<trkpt lat="41.207537" lon="-73.980556"><ele>27</ele></trkpt>
<trkpt lat="41.207633" lon="-73.980569"><ele>26</ele></trkpt>
<trkpt lat="41.207732" lon="-73.980565"><ele>25</ele></trkpt>
<trkpt lat="41.207839" lon="-73.980533"><ele>25</ele></trkpt>
<trkpt lat="41.208217" lon="-73.980346"><ele>25</ele></trkpt>
<trkpt lat="41.209168" lon="-73.980412"><ele>25</ele></trkpt>
<trkpt lat="41.209372" lon="-73.982086"><ele>28</ele></trkpt>
<trkpt lat="41.209597" lon="-73.984152"><ele>29</ele></trkpt>
<trkpt lat="41.209713" lon="-73.985428"><ele>33</ele></trkpt>
<trkpt lat="41.209829" lon="-73.985553"><ele>33</ele></trkpt>
<trkpt lat="41.210300" lon="-73.985580"><ele>31</ele></trkpt>
<trkpt lat="41.210823" lon="-73.985607"><ele>30</ele></trkpt>
<trkpt lat="41.211324" lon="-73.985640"><ele>30</ele></trkpt>
<trkpt lat="41.212255" lon="-73.985710"><ele>30</ele></trkpt>
<trkpt lat="41.212616" lon="-73.985751"><ele>31</ele></trkpt>
<trkpt lat="41.213724" lon="-73.985913"><ele>35</ele></trkpt>
<trkpt lat="41.214209" lon="-73.985975"><ele>37</ele></trkpt>
<trkpt lat="41.214598" lon="-73.986040"><ele>37</ele></trkpt>
<trkpt lat="41.216105" lon="-73.986410"><ele>39</ele></trkpt>
<trkpt lat="41.216350" lon="-73.986464"><ele>39</ele></trkpt>
<trkpt lat="41.216506" lon="-73.986485"><ele>39</ele></trkpt>
<trkpt lat="41.217026" lon="-73.986494"><ele>37</ele></trkpt>
<trkpt lat="41.217743" lon="-73.986475"><ele>35</ele></trkpt>
<trkpt lat="41.217987" lon="-73.986454"><ele>35</ele></trkpt>
<trkpt lat="41.218177" lon="-73.986430"><ele>35</ele></trkpt>
<trkpt lat="41.218410" lon="-73.986397"><ele>36</ele></trkpt>
<trkpt lat="41.218700" lon="-73.986360"><ele>37</ele></trkpt>
<trkpt lat="41.218957" lon="-73.986336"><ele>38</ele></trkpt>
<trkpt lat="41.219239" lon="-73.986332"><ele>38</ele></trkpt>
<trkpt lat="41.219529" lon="-73.986335"><ele>38</ele></trkpt>
<trkpt lat="41.220069" lon="-73.986336"><ele>38</ele></trkpt>
<trkpt lat="41.220269" lon="-73.986311"><ele>36</ele></trkpt>
<trkpt lat="41.220478" lon="-73.986248"><ele>35</ele></trkpt>
<trkpt lat="41.220673" lon="-73.986153"><ele>34</ele></trkpt>
<trkpt lat="41.220848" lon="-73.986031"><ele>32</ele></trkpt>
<trkpt lat="41.220976" lon="-73.985916"><ele>31</ele></trkpt>
<trkpt lat="41.221773" lon="-73.985152"><ele>27</ele></trkpt>
<trkpt lat="41.221938" lon="-73.985004"><ele>27</ele></trkpt>
<trkpt lat="41.222082" lon="-73.984892"><ele>27</ele></trkpt>
<trkpt lat="41.222183" lon="-73.984823"><ele>27</ele></trkpt>
<trkpt lat="41.222405" lon="-73.984692"><ele>27</ele></trkpt>
<trkpt lat="41.222679" lon="-73.984564"><ele>27</ele></trkpt>
<trkpt lat="41.222984" lon="-73.984467"><ele>27</ele></trkpt>
<trkpt lat="41.223185" lon="-73.984432"><ele>27</ele></trkpt>
<trkpt lat="41.223373" lon="-73.984424"><ele>27</ele></trkpt>
<trkpt lat="41.223555" lon="-73.984444"><ele>27</ele></trkpt>
<trkpt lat="41.223748" lon="-73.984494"><ele>27</ele></trkpt>
<trkpt lat="41.223958" lon="-73.984586"><ele>27</ele></trkpt>
<trkpt lat="41.224357" lon="-73.984807"><ele>27</ele></trkpt>
<trkpt lat="41.224550" lon="-73.984922"><ele>28</ele></trkpt>
<trkpt lat="41.224697" lon="-73.985017"><ele>28</ele></trkpt>
<trkpt lat="41.224846" lon="-73.985128"><ele>28</ele></trkpt>
<trkpt lat="41.224978" lon="-73.985239"><ele>28</ele></trkpt>
<trkpt lat="41.225111" lon="-73.985360"><ele>28</ele></trkpt>
<trkpt lat="41.225250" lon="-73.985499"><ele>28</ele></trkpt>
<trkpt lat="41.225435" lon="-73.985701"><ele>28</ele></trkpt>
<trkpt lat="41.225606" lon="-73.985903"><ele>29</ele></trkpt>
<trkpt lat="41.225741" lon="-73.986081"><ele>30</ele></trkpt>
<trkpt lat="41.225889" lon="-73.986302"><ele>31</ele></trkpt>
<trkpt lat="41.226116" lon="-73.986663"><ele>33</ele></trkpt>
<trkpt lat="41.226240" lon="-73.986852"><ele>34</ele></trkpt>
<trkpt lat="41.226469" lon="-73.987130"><ele>35</ele></trkpt>
<trkpt lat="41.226689" lon="-73.987338"><ele>35</ele></trkpt>
<trkpt lat="41.226828" lon="-73.987447"><ele>35</ele></trkpt>
<trkpt lat="41.226982" lon="-73.987540"><ele>35</ele></trkpt>
<trkpt lat="41.227138" lon="-73.987602"><ele>35</ele></trkpt>
<trkpt lat="41.227290" lon="-73.987640"><ele>35</ele></trkpt>
<trkpt lat="41.227441" lon="-73.987657"><ele>34</ele></trkpt>
<trkpt lat="41.227588" lon="-73.987648"><ele>34</ele></trkpt>
<trkpt lat="41.227728" lon="-73.987621"><ele>34</ele></trkpt>
<trkpt lat="41.228731" lon="-73.987196"><ele>19</ele></trkpt>
<trkpt lat="41.229169" lon="-73.987011"><ele>34</ele></trkpt>
<trkpt lat="41.229362" lon="-73.987112"><ele>35</ele></trkpt>
<trkpt lat="41.229425" lon="-73.987425"><ele>36</ele></trkpt>
<trkpt lat="41.230395" lon="-73.987705"><ele>43</ele></trkpt>
<trkpt lat="41.231357" lon="-73.987464"><ele>45</ele></trkpt>
<trkpt lat="41.232956" lon="-73.987230"><ele>41</ele></trkpt>
<trkpt lat="41.233655" lon="-73.987867"><ele>42</ele></trkpt>
<trkpt lat="41.234679" lon="-73.988181"><ele>44</ele></trkpt>
<trkpt lat="41.235756" lon="-73.988022"><ele>45</ele></trkpt>
<trkpt lat="41.236620" lon="-73.988178"><ele>47</ele></trkpt>
<trkpt lat="41.237515" lon="-73.988408"><ele>51</ele></trkpt>
<trkpt lat="41.238709" lon="-73.988773"><ele>55</ele></trkpt>
<trkpt lat="41.240081" lon="-73.988826"><ele>56</ele></trkpt>
<trkpt lat="41.240824" lon="-73.989725"><ele>58</ele></trkpt>
<trkpt lat="41.243825" lon="-73.990026"><ele>39</ele></trkpt>
<trkpt lat="41.244495" lon="-73.989130"><ele>36</ele></trkpt>
<trkpt lat="41.244972" lon="-73.989050"><ele>40</ele></trkpt>
<trkpt lat="41.245303" lon="-73.988807"><ele>40</ele></trkpt>
<trkpt lat="41.245477" lon="-73.988155"><ele>36</ele></trkpt>
<trkpt lat="41.245426" lon="-73.987703"><ele>35</ele></trkpt>
<trkpt lat="41.245584" lon="-73.987462"><ele>37</ele></trkpt>
<trkpt lat="41.246311" lon="-73.987730"><ele>43</ele></trkpt>
<trkpt lat="41.246689" lon="-73.987865"><ele>45</ele></trkpt>
<trkpt lat="41.246967" lon="-73.987950"><ele>47</ele></trkpt>
<trkpt lat="41.247196" lon="-73.988003"><ele>46</ele></trkpt>
<trkpt lat="41.247404" lon="-73.988022"><ele>46</ele></trkpt>
<trkpt lat="41.247617" lon="-73.988010"><ele>46</ele></trkpt>
<trkpt lat="41.247644" lon="-73.988062"><ele>46</ele></trkpt>
<trkpt lat="41.247851" lon="-73.988245"><ele>47</ele></trkpt>
<trkpt lat="41.248032" lon="-73.988373"><ele>49</ele></trkpt>
<trkpt lat="41.248188" lon="-73.988446"><ele>51</ele></trkpt>
<trkpt lat="41.248381" lon="-73.988504"><ele>54</ele></trkpt>
<trkpt lat="41.249881" lon="-73.988512"><ele>65</ele></trkpt>
<trkpt lat="41.251754" lon="-73.987704"><ele>69</ele></trkpt>
<trkpt lat="41.252597" lon="-73.986720"><ele>57</ele></trkpt>
<trkpt lat="41.253000" lon="-73.986383"><ele>54</ele></trkpt>
<trkpt lat="41.253083" lon="-73.986301"><ele>53</ele></trkpt>
<trkpt lat="41.253132" lon="-73.986185"><ele>53</ele></trkpt>
<trkpt lat="41.253261" lon="-73.986094"><ele>53</ele></trkpt>
<trkpt lat="41.253443" lon="-73.986073"><ele>54</ele></trkpt>
<trkpt lat="41.253593" lon="-73.986031"><ele>54</ele></trkpt>
<trkpt lat="41.254089" lon="-73.985858"><ele>56</ele></trkpt>
<trkpt lat="41.254290" lon="-73.985757"><ele>57</ele></trkpt>
<trkpt lat="41.254508" lon="-73.985579"><ele>58</ele></trkpt>
<trkpt lat="41.254708" lon="-73.985341"><ele>60</ele></trkpt>
<trkpt lat="41.254881" lon="-73.985083"><ele>60</ele></trkpt>
<trkpt lat="41.255056" lon="-73.984879"><ele>61</ele></trkpt>
<trkpt lat="41.255262" lon="-73.984719"><ele>59</ele></trkpt>
<trkpt lat="41.255533" lon="-73.984554"><ele>57</ele></trkpt>
<trkpt lat="41.256489" lon="-73.984003"><ele>53</ele></trkpt>
<trkpt lat="41.256749" lon="-73.983864"><ele>53</ele></trkpt>
<trkpt lat="41.256894" lon="-73.983823"><ele>52</ele></trkpt>
<trkpt lat="41.257050" lon="-73.983817"><ele>52</ele></trkpt>
<trkpt lat="41.257297" lon="-73.983832"><ele>53</ele></trkpt>
<trkpt lat="41.257454" lon="-73.983823"><ele>54</ele></trkpt>
<trkpt lat="41.257603" lon="-73.983777"><ele>55</ele></trkpt>
<trkpt lat="41.257775" lon="-73.983690"><ele>56</ele></trkpt>
<trkpt lat="41.257959" lon="-73.983569"><ele>56</ele></trkpt>
<trkpt lat="41.258161" lon="-73.983401"><ele>56</ele></trkpt>
<trkpt lat="41.258358" lon="-73.983219"><ele>55</ele></trkpt>
<trkpt lat="41.258474" lon="-73.983099"><ele>55</ele></trkpt>
<trkpt lat="41.258584" lon="-73.982990"><ele>54</ele></trkpt>
<trkpt lat="41.258667" lon="-73.982954"><ele>54</ele></trkpt>
<trkpt lat="41.258936" lon="-73.982726"><ele>54</ele></trkpt>
<trkpt lat="41.259834" lon="-73.982181"><ele>55</ele></trkpt>
<trkpt lat="41.260763" lon="-73.981583"><ele>51</ele></trkpt>
<trkpt lat="41.261196" lon="-73.981204"><ele>47</ele></trkpt>
<trkpt lat="41.261482" lon="-73.980820"><ele>43</ele></trkpt>
<trkpt lat="41.261828" lon="-73.980706"><ele>38</ele></trkpt>
<trkpt lat="41.262020" lon="-73.980651"><ele>35</ele></trkpt>
<trkpt lat="41.262104" lon="-73.980589"><ele>33</ele></trkpt>
<trkpt lat="41.262189" lon="-73.980541"><ele>32</ele></trkpt>
<trkpt lat="41.262649" lon="-73.980453"><ele>26</ele></trkpt>
<trkpt lat="41.262969" lon="-73.980347"><ele>22</ele></trkpt>
<trkpt lat="41.263155" lon="-73.980235"><ele>19</ele></trkpt>
<trkpt lat="41.263287" lon="-73.980085"><ele>16</ele></trkpt>
<trkpt lat="41.264066" lon="-73.978844"><ele>2</ele></trkpt>
<trkpt lat="41.264255" lon="-73.978578"><ele>3</ele></trkpt>
<trkpt lat="41.264455" lon="-73.978363"><ele>2</ele></trkpt>
<trkpt lat="41.264661" lon="-73.978203"><ele>2</ele></trkpt>
<trkpt lat="41.266294" lon="-73.977190"><ele>3</ele></trkpt>
<trkpt lat="41.266888" lon="-73.976650"><ele>4</ele></trkpt>
<trkpt lat="41.268314" lon="-73.975680"><ele>4</ele></trkpt>
<trkpt lat="41.269546" lon="-73.975319"><ele>6</ele></trkpt>
<trkpt lat="41.270772" lon="-73.974744"><ele>9</ele></trkpt>
<trkpt lat="41.271352" lon="-73.974590"><ele>10</ele></trkpt>
<trkpt lat="41.273139" lon="-73.973766"><ele>10</ele></trkpt>
<trkpt lat="41.273664" lon="-73.973498"><ele>17</ele></trkpt>
<trkpt lat="41.274662" lon="-73.972822"><ele>19</ele></trkpt>
<trkpt lat="41.275165" lon="-73.972581"><ele>17</ele></trkpt>
<trkpt lat="41.276403" lon="-73.972455"><ele>5</ele></trkpt>
<trkpt lat="41.276749" lon="-73.972360"><ele>2</ele></trkpt>
<trkpt lat="41.277066" lon="-73.972195"><ele>2</ele></trkpt>
<trkpt lat="41.277298" lon="-73.972020"><ele>2</ele></trkpt>
<trkpt lat="41.277479" lon="-73.971841"><ele>3</ele></trkpt>
<trkpt lat="41.277771" lon="-73.971440"><ele>4</ele></trkpt>
<trkpt lat="41.278078" lon="-73.970909"><ele>8</ele></trkpt>
<trkpt lat="41.278343" lon="-73.970371"><ele>9</ele></trkpt>
<trkpt lat="41.278703" lon="-73.969416"><ele>12</ele></trkpt>
<trkpt lat="41.279672" lon="-73.966627"><ele>4</ele></trkpt>
<trkpt lat="41.280203" lon="-73.965043"><ele>3</ele></trkpt>
<trkpt lat="41.280932" lon="-73.962815"><ele>3</ele></trkpt>
<trkpt lat="41.281068" lon="-73.962413"><ele>4</ele></trkpt>
<trkpt lat="41.281447" lon="-73.961373"><ele>3</ele></trkpt>
<trkpt lat="41.281669" lon="-73.960963"><ele>3</ele></trkpt>
<trkpt lat="41.282059" lon="-73.960464"><ele>3</ele></trkpt>
<trkpt lat="41.283322" lon="-73.958952"><ele>4</ele></trkpt>
<trkpt lat="41.283598" lon="-73.958701"><ele>4</ele></trkpt>
<trkpt lat="41.283792" lon="-73.958306"><ele>4</ele></trkpt>
<trkpt lat="41.283970" lon="-73.957931"><ele>3</ele></trkpt>
<trkpt lat="41.284198" lon="-73.957656"><ele>3</ele></trkpt>
<trkpt lat="41.285072" lon="-73.956824"><ele>3</ele></trkpt>
<trkpt lat="41.285371" lon="-73.956538"><ele>3</ele></trkpt>
<trkpt lat="41.285619" lon="-73.956414"><ele>3</ele></trkpt>
<trkpt lat="41.286457" lon="-73.956138"><ele>9</ele></trkpt>
<trkpt lat="41.286819" lon="-73.956013"><ele>10</ele></trkpt>
<trkpt lat="41.287271" lon="-73.955852"><ele>15</ele></trkpt>
<trkpt lat="41.287839" lon="-73.955702"><ele>17</ele></trkpt>
<trkpt lat="41.288399" lon="-73.955631"><ele>22</ele></trkpt>
<trkpt lat="41.288974" lon="-73.955651"><ele>25</ele></trkpt>
<trkpt lat="41.289218" lon="-73.955762"><ele>26</ele></trkpt>
<trkpt lat="41.289611" lon="-73.956206"><ele>28</ele></trkpt>
<trkpt lat="41.290102" lon="-73.956565"><ele>34</ele></trkpt>
<trkpt lat="41.290389" lon="-73.956836"><ele>35</ele></trkpt>
<trkpt lat="41.291176" lon="-73.957877"><ele>31</ele></trkpt>
<trkpt lat="41.291506" lon="-73.958459"><ele>32</ele></trkpt>
<trkpt lat="41.291736" lon="-73.959007"><ele>36</ele></trkpt>
<trkpt lat="41.292027" lon="-73.959502"><ele>33</ele></trkpt>
<trkpt lat="41.292612" lon="-73.960236"><ele>27</ele></trkpt>
<trkpt lat="41.292917" lon="-73.960677"><ele>31</ele></trkpt>
<trkpt lat="41.293119" lon="-73.961188"><ele>35</ele></trkpt>
<trkpt lat="41.293460" lon="-73.961817"><ele>35</ele></trkpt>
<trkpt lat="41.293704" lon="-73.962336"><ele>31</ele></trkpt>
<trkpt lat="41.294512" lon="-73.965563"><ele>29</ele></trkpt>
<trkpt lat="41.294555" lon="-73.966043"><ele>30</ele></trkpt>
<trkpt lat="41.294315" lon="-73.967443"><ele>34</ele></trkpt>
<trkpt lat="41.294294" lon="-73.968208"><ele>32</ele></trkpt>
<trkpt lat="41.294332" lon="-73.969010"><ele>30</ele></trkpt>
<trkpt lat="41.294493" lon="-73.970734"><ele>30</ele></trkpt>
<trkpt lat="41.294628" lon="-73.971703"><ele>32</ele></trkpt>
<trkpt lat="41.294970" lon="-73.972503"><ele>27</ele></trkpt>
<trkpt lat="41.294993" lon="-73.973631"><ele>20</ele></trkpt>
<trkpt lat="41.295064" lon="-73.974494"><ele>17</ele></trkpt>
<trkpt lat="41.295222" lon="-73.974966"><ele>17</ele></trkpt>
<trkpt lat="41.295728" lon="-73.975634"><ele>18</ele></trkpt>
<trkpt lat="41.296051" lon="-73.976238"><ele>15</ele></trkpt>
<trkpt lat="41.296235" lon="-73.976791"><ele>14</ele></trkpt>
<trkpt lat="41.296267" lon="-73.977201"><ele>13</ele></trkpt>
<trkpt lat="41.295944" lon="-73.978830"><ele>16</ele></trkpt>
<trkpt lat="41.295909" lon="-73.980395"><ele>11</ele></trkpt>
<trkpt lat="41.295629" lon="-73.981343"><ele>14</ele></trkpt>
<trkpt lat="41.295514" lon="-73.982088"><ele>15</ele></trkpt>
<trkpt lat="41.295565" lon="-73.982855"><ele>15</ele></trkpt>
<trkpt lat="41.295834" lon="-73.984007"><ele>12</ele></trkpt>
<trkpt lat="41.296086" lon="-73.984730"><ele>10</ele></trkpt>
<trkpt lat="41.296167" lon="-73.984970"><ele>8</ele></trkpt>
<trkpt lat="41.296431" lon="-73.985172"><ele>5</ele></trkpt>
<trkpt lat="41.296793" lon="-73.985300"><ele>4</ele></trkpt>
<trkpt lat="41.298451" lon="-73.985590"><ele>3</ele></trkpt>
<trkpt lat="41.299032" lon="-73.985612"><ele>4</ele></trkpt>
<trkpt lat="41.299417" lon="-73.985638"><ele>5</ele></trkpt>
<trkpt lat="41.299757" lon="-73.985727"><ele>3</ele></trkpt>
<trkpt lat="41.300476" lon="-73.985986"><ele>3</ele></trkpt>
<trkpt lat="41.300852" lon="-73.986058"><ele>2</ele></trkpt>
<trkpt lat="41.301182" lon="-73.986065"><ele>2</ele></trkpt>
<trkpt lat="41.301944" lon="-73.986174"><ele>4</ele></trkpt>
<trkpt lat="41.302139" lon="-73.986174"><ele>5</ele></trkpt>
<trkpt lat="41.302433" lon="-73.986100"><ele>6</ele></trkpt>
<trkpt lat="41.302603" lon="-73.986104"><ele>7</ele></trkpt>
<trkpt lat="41.302757" lon="-73.986168"><ele>8</ele></trkpt>
<trkpt lat="41.303075" lon="-73.986376"><ele>11</ele></trkpt>
<trkpt lat="41.303264" lon="-73.986470"><ele>13</ele></trkpt>
<trkpt lat="41.303561" lon="-73.986547"><ele>16</ele></trkpt>
<trkpt lat="41.303738" lon="-73.986622"><ele>18</ele></trkpt>
<trkpt lat="41.304026" lon="-73.986826"><ele>20</ele></trkpt>
<trkpt lat="41.304214" lon="-73.986902"><ele>20</ele></trkpt>
<trkpt lat="41.304419" lon="-73.986908"><ele>22</ele></trkpt>
<trkpt lat="41.304774" lon="-73.986828"><ele>25</ele></trkpt>
<trkpt lat="41.304944" lon="-73.986814"><ele>27</ele></trkpt>
<trkpt lat="41.305132" lon="-73.986867"><ele>28</ele></trkpt>
<trkpt lat="41.305346" lon="-73.986989"><ele>30</ele></trkpt>
<trkpt lat="41.305669" lon="-73.987242"><ele>32</ele></trkpt>
<trkpt lat="41.305847" lon="-73.987325"><ele>32</ele></trkpt>
<trkpt lat="41.306026" lon="-73.987334"><ele>34</ele></trkpt>
<trkpt lat="41.306241" lon="-73.987273"><ele>34</ele></trkpt>
<trkpt lat="41.306519" lon="-73.987134"><ele>37</ele></trkpt>
<trkpt lat="41.306745" lon="-73.986969"><ele>39</ele></trkpt>
<trkpt lat="41.307044" lon="-73.986711"><ele>36</ele></trkpt>
<trkpt lat="41.307200" lon="-73.986639"><ele>35</ele></trkpt>
<trkpt lat="41.307343" lon="-73.986647"><ele>37</ele></trkpt>
<trkpt lat="41.307518" lon="-73.986734"><ele>38</ele></trkpt>
<trkpt lat="41.307696" lon="-73.986889"><ele>38</ele></trkpt>
<trkpt lat="41.307807" lon="-73.987081"><ele>39</ele></trkpt>
<trkpt lat="41.307861" lon="-73.987302"><ele>40</ele></trkpt>
<trkpt lat="41.307866" lon="-73.987543"><ele>40</ele></trkpt>
<trkpt lat="41.307837" lon="-73.987757"><ele>40</ele></trkpt>
<trkpt lat="41.307761" lon="-73.987956"><ele>42</ele></trkpt>
<trkpt lat="41.307663" lon="-73.988179"><ele>43</ele></trkpt>
<trkpt lat="41.307608" lon="-73.988415"><ele>44</ele></trkpt>
<trkpt lat="41.307595" lon="-73.988669"><ele>45</ele></trkpt>
<trkpt lat="41.307632" lon="-73.988926"><ele>46</ele></trkpt>
<trkpt lat="41.307697" lon="-73.989141"><ele>47</ele></trkpt>
<trkpt lat="41.307792" lon="-73.989305"><ele>47</ele></trkpt>
<trkpt lat="41.307976" lon="-73.989532"><ele>48</ele></trkpt>
<trkpt lat="41.308964" lon="-73.990689"><ele>60</ele></trkpt>
<trkpt lat="41.309112" lon="-73.990798"><ele>60</ele></trkpt>
<trkpt lat="41.309186" lon="-73.990746"><ele>60</ele></trkpt>
<trkpt lat="41.309217" lon="-73.990501"><ele>59</ele></trkpt>
<trkpt lat="41.309232" lon="-73.990287"><ele>57</ele></trkpt>
<trkpt lat="41.309270" lon="-73.990070"><ele>54</ele></trkpt>
<trkpt lat="41.309360" lon="-73.989836"><ele>54</ele></trkpt>
<trkpt lat="41.309502" lon="-73.989585"><ele>55</ele></trkpt>
<trkpt lat="41.309960" lon="-73.988764"><ele>50</ele></trkpt>
<trkpt lat="41.310121" lon="-73.988555"><ele>49</ele></trkpt>
<trkpt lat="41.310311" lon="-73.988374"><ele>48</ele></trkpt>
<trkpt lat="41.310536" lon="-73.988247"><ele>46</ele></trkpt>
<trkpt lat="41.310852" lon="-73.988134"><ele>48</ele></trkpt>
<trkpt lat="41.310886" lon="-73.988497"><ele>49</ele></trkpt>
<trkpt lat="41.312602" lon="-73.988882"><ele>52</ele></trkpt>
<trkpt lat="41.312602" lon="-73.988882"><ele>52</ele></trkpt>
</trkseg></trk>
</gpx>